[{"OBJECT_NAME":"ION SCV-010","OBJECT_ID":"2023-054Q","EPOCH":"2026-03-09T16:02:35.904768","MEAN_MOTION":15.25210322,"ECCENTRICITY":0.00127052,"INCLINATION":97.3904,"RA_OF_ASC_NODE":319.4312,"ARG_OF_PERICENTER":188.785,"MEAN_ANOMALY":171.3168,"EPHEMERIS_TYPE":0,"CLASSIFICATION_TYPE":"U","NORAD_CAT_ID":56192,"ELEMENT_SET_NO":999,"REV_AT_EPOCH":16102,"BSTAR":0.00025045068,"MEAN_MOTION_DOT":6.231e-5,"MEAN_MOTION_DDOT":0},{"OBJECT_NAME":"STARLINK-36164","OBJECT_ID":"2025-299AB","EPOCH":"2026-03-09T22:00:01.999584","MEAN_MOTION":15.27582396,"ECCENTRICITY":0.00015292,"INCLINATION":42.9992,"RA_OF_ASC_NODE":167.4062,"ARG_OF_PERICENTER":271.7835,"MEAN_ANOMALY":116.3565,"EPHEMERIS_TYPE":0,"CLASSIFICATION_TYPE":"U","NORAD_CAT_ID":67127,"ELEMENT_SET_NO":999,"REV_AT_EPOCH":590,"BSTAR":-0.00012503858,"MEAN_MOTION_DOT":-3.702e-5,"MEAN_MOTION_DDOT":0}]
